BY70-2                  
1 45857U 20042B   24135.58578542  .00130927  00000+0  55964-2 0  9998
2 45857  97.9067 227.1341 0006605 285.9557  74.0950 15.22253710209427
SALSAT                  
1 46495U 20068K   24135.47668460  .00009864  00000+0  56747-3 0  9998
2 46495  97.8146  93.9401 0016107  72.0732 288.2252 15.12561606199211
UVSQ-SAT                
1 47438U 21006AB  24135.12749873  .00058230  00000+0  12644-2 0  9997
2 47438  97.3290 195.2360 0004654 338.0001  22.1046 15.44162011183471
LEDSAT                  
1 49069U 21073D   24135.18050552  .00019627  00000+0  81913-3 0  9991
2 49069  97.4384 206.5665 0020146  47.8511 312.4433 15.23511231151274
XW-3 (CAS-9)            
1 50466U 21131B   24135.55613556  .00001459  00000+0  48121-3 0  9997
2 50466  98.5267 220.7845 0003602 211.5099 148.5873 14.39582948125160
TEVEL-3                 
1 50988U 22002E   24135.58151669  .00142105  00000+0  18910-2 0  9995
2 50988  97.3797 209.9856 0004225 161.1422 198.9991 15.57670916129806
TEVEL-8                 
1 50989U 22002F   24135.55553889  .00141011  00000+0  18886-2 0  9990
2 50989  97.3821 210.0494 0004337 161.8744 198.2667 15.57500602129799
TEVEL-5                 
1 50998U 22002Q   24135.56248229  .00174866  00000+0  19638-2 0  9990
2 50998  97.3786 211.1555 0003794 163.2472 196.8912 15.62043849129887
TEVEL-6                 
1 50999U 22002R   24135.56797652  .00173291  00000+0  19600-2 0  9990
2 50999  97.3780 211.1294 0003718 163.6124 196.5254 15.61864514129881
TEVEL-1                 
1 51013U 22002AF  24135.54447434  .00141664  00000+0  18992-2 0  9998
2 51013  97.3789 209.8124 0003970 158.2046 201.9379 15.57473435129799
TEVEL-7                 
1 51062U 22002CG  24135.48065048  .00134781  00000+0  17976-2 0  9995
2 51062  97.3807 209.9467 0003989 158.2976 201.8450 15.57636569129784
TEVEL-4                 
1 51063U 22002CH  24135.58061165  .00138561  00000+0  18738-2 0  9990
2 51063  97.3809 209.9570 0004071 156.5770 203.5671 15.57249958129795
TEVEL-2                 
1 51069U 22002CP  24135.57957531  .00139819  00000+0  18584-2 0  9992
2 51069  97.3794 209.9515 0004078 160.7122 199.4288 15.57710932129802
GREENCUBE               
1 53106U 22080B   24129.12370289 -.00000003  00000+0  00000+0 0  9999
2 53106  70.1412 206.4364 0007827 115.6229 244.5240  6.42557310 42692
KUZBASS-300 (RS34S)     
1 53375U 22096F   24135.33009311  .01455582  14957-2  15442-2 0  9993
2 53375  97.3750  56.6067 0007866 166.1533 193.9969 16.10567300 99214
MIET-AIS (RS28S)        
1 53377U 22096H   24135.30064684  .00328580  00000+0  14534-2 0  9994
2 53377  97.3839  55.0325 0006952 124.5639 235.6287 15.83570765 99107
KAI-1 (RS26S)           
1 53378U 22096J   24135.61252723  .00109106  00000+0  11782-2 0  9995
2 53378  97.3963  52.7688 0005229 106.4606 253.7228 15.63265525 98974
ISOI (RS19S)            
1 53381U 22096M   24135.28972197  .00356162  00000+0  13524-2 0  9998
2 53381  97.3863  55.9702 0006556 130.7101 229.4740 15.86714476 99163
SIREN (RS30S)           
1 53384U 22096Q   24135.44917581  .00193738  00000+0  13746-2 0  9999
2 53384  97.3912  54.4236 0004640 124.4289 235.7414 15.73341487 99078
CAS-5A (FO-118)         
1 54684U 22167C   24135.56648634  .00034755  00000+0  12677-2 0  9990
2 54684  97.6019 279.6568 0010346 258.5095 101.4982 15.28025584 79160
STRATOSAT-TK 1 (RS52S)  
1 57167U 23091B   24135.59789709  .00019211  00000+0  11434-2 0  9998
2 57167  97.6140 188.7834 0014752 228.5475 131.4488 15.11180885 48487
UMKA 1 (RS40S)          
1 57172U 23091G   24135.54276863  .00008248  00000+0  55228-3 0  9999
2 57172  97.6146 187.9350 0015716 232.0194 127.9615 15.07069087 48423
CUBESX-HSE 3 (RS42S)    
1 57178U 23091N   24135.59318346  .00011061  00000+0  71591-3 0  9991
2 57178  97.6177 188.3292 0016527 225.5478 134.4399 15.08225346 48443
MONITOR-4 (RS57S)       
1 57182U 23091S   24135.57080956  .00011229  00000+0  73492-3 0  9995
2 57182  97.6158 188.1561 0017054 227.7875 132.1906 15.07804704 48433
MONITOR-2 (RS39S)       
1 57184U 23091U   24135.57603723  .00007567  00000+0  50506-3 0  9991
2 57184  97.6163 188.3241 0013499 220.6373 139.3849 15.07239932 48443
SVYATOBOR 1 (RS60S)     
1 57187U 23091X   24135.56458625  .00010725  00000+0  68811-3 0  9990
2 57187  97.6171 188.6513 0013172 217.3905 142.6408 15.08597546 48461
VIZARD-METEO (RS38S)    
1 57189U 23091Z   24135.54950450  .00012140  00000+0  75263-3 0  9995
2 57189  97.6168 188.9475 0012090 213.4181 146.6286 15.09833923 48483
NANOZOND 1 (RS49S)      
1 57190U 23091AA  24135.60389472  .00017426  00000+0  10154-2 0  9993
2 57190  97.6142 189.3818 0010530 216.1762 143.8757 15.12014767 48523
POLYTECH-UNIVERSE 3 (R*)
1 57191U 23091AB  24135.57890986  .00007184  00000+0  47992-3 0  9998
2 57191  97.6130 188.0304 0018581 239.7152 120.2237 15.07159313 48438
UTMN 2 (RS27S)          
1 57203U 23091AP  24135.59647317  .00011164  00000+0  70059-3 0  9995
2 57203  97.6165 188.8832 0012388 213.4765 146.5682 15.09408891 48482
ARCCUBE 1 (RS25S)       
1 57205U 23091AR  24135.60401741  .00020294  00000+0  11517-2 0  9995
2 57205  97.6113 189.4493 0010725 217.5078 142.5405 15.12930028 48533
KUZGTU 1 (RS47S)        
1 57217U 23091AV  24135.59888723  .00011055  00000+0  71782-3 0  9991
2 57217  97.6154 188.2185 0016335 226.7835 133.2030 15.08108334 48445
HADES-D (SO-121)        
1 58567U 23174CY  24135.46437203  .00049513  00000+0  19071-2 0  9993
2 58567  97.4553 211.1730 0010667 347.9370  12.1612 15.26132391 28639
